CTC2_L_00503024-03
1 10186U 25542EW  26075.70047454  .00000000  00000+0  00000-0 0  9994
2 10186  96.7000 276.0000 0000000   0.0000 228.0000 15.90815360    16
CTC2_L_00503024-04
1 10187U 26775WA  26075.70047454  .00000000  00000+0  00000-0 0  9994
2 10187  96.7000 276.0000 0000000   0.0000 273.0000 15.90815360    17
CTC2_L_00503024-05
1 10188U 23270OM  26075.70047454  .00000000  00000+0  00000-0 0  9992
2 10188  96.7000 276.0000 0000000   0.0000 318.0000 15.90815360    18
CTC2_L_00503024-06
1 10189U 23392AC  26075.70047454  .00000000  00000+0  00000-0 0  9998
2 10189  96.7000 276.0000 0000000   0.0000   3.0000 15.90815360    10
CTC2_L_00503024-07
1 10190U 25088VH  26075.70047454  .00000000  00000+0  00000-0 0  9994
2 10190  96.7000 276.0000 0000000   0.0000  48.0000 15.90815360    11
CTC2_L_00503024-08
1 10191U 22536FU  26075.70047454  .00000000  00000+0  00000-0 0  9990
2 10191  96.7000 276.0000 0000000   0.0000  93.0000 15.90815360    12
CTC2_L_00503025-01
1 10192U 26478JG  26075.70047454  .00000000  00000+0  00000-0 0  9990
2 10192  96.7000 288.0000 0000000   0.0000 144.0000 15.90815360    13
CTC2_L_00503025-02
1 10193U 24041DV  26075.70047454  .00000000  00000+0  00000-0 0  9995
2 10193  96.7000 288.0000 0000000   0.0000 189.0000 15.90815360    13
CTC2_L_00503025-03
1 10194U 25082BN  26075.70047454  .00000000  00000+0  00000-0 0  9992
2 10194  96.7000 288.0000 0000000   0.0000 234.0000 15.90815360    15
CTC2_L_00503025-04
1 10195U 24165DT  26075.70047454  .00000000  00000+0  00000-0 0  9994
2 10195  96.7000 288.0000 0000000   0.0000 279.0000 15.90815360    15
CTC2_L_00503025-05
1 10196U 22310X   26075.70047454  .00000000  00000+0  00000-0 0  9995
2 10196  96.7000 288.0000 0000000   0.0000 324.0000 15.90815360    17
CTC2_L_00503025-06
1 10197U 25622PV  26075.70047454  .00000000  00000+0  00000-0 0  9995
2 10197  96.7000 288.0000 0000000   0.0000   9.0000 15.90815360    18
CTC2_L_00503025-07
1 10198U 25451RK  26075.70047454  .00000000  00000+0  00000-0 0  9996
2 10198  96.7000 288.0000 0000000   0.0000  54.0000 15.90815360    19
CTC2_L_00503025-08
1 10199U 24903WD  26075.70047454  .00000000  00000+0  00000-0 0  9998
2 10199  96.7000 288.0000 0000000   0.0000  99.0000 15.90815360    19
CTC2_L_00503026-01
1 10200U 23514NB  26075.70047454  .00000000  00000+0  00000-0 0  9998
2 10200  96.7000 300.0000 0000000   0.0000 150.0000 15.90815360    15
CTC2_L_00503026-02
1 10201U 26858BB  26075.70047454  .00000000  00000+0  00000-0 0  9993
2 10201  96.7000 300.0000 0000000   0.0000 195.0000 15.90815360    15
CTC2_L_00503026-03
1 10202U 23748WI  26075.70047454  .00000000  00000+0  00000-0 0  9999
2 10202  96.7000 300.0000 0000000   0.0000 240.0000 15.90815360    17
CTC2_L_00503026-04
1 10203U 25589PI  26075.70047454  .00000000  00000+0  00000-0 0  9995
2 10203  96.7000 300.0000 0000000   0.0000 285.0000 15.90815360    17
CTC2_L_00503026-05
1 10204U 22798NJ  26075.70047454  .00000000  00000+0  00000-0 0  9995
2 10204  96.7000 300.0000 0000000   0.0000 330.0000 15.90815360    19
CTC2_L_00503026-06
1 10205U 26456CK  26075.70047454  .00000000  00000+0  00000-0 0  9991
2 10205  96.7000 300.0000 0000000   0.0000  15.0000 15.90815360    10
CTC2_L_00503026-07
1 10206U 25957NT  26075.70047454  .00000000  00000+0  00000-0 0  9997
2 10206  96.7000 300.0000 0000000   0.0000  60.0000 15.90815360    11
CTC2_L_00503026-08
1 10207U 22970PL  26075.70047454  .00000000  00000+0  00000-0 0  9990
2 10207  96.7000 300.0000 0000000   0.0000 105.0000 15.90815360    12
CTC2_L_00503027-01
1 10208U 22056NL  26075.70047454  .00000000  00000+0  00000-0 0  9996
2 10208  96.7000 312.0000 0000000   0.0000 156.0000 15.90815360    12
CTC2_L_00503027-02
1 10209U 22994VV  26075.70047454  .00000000  00000+0  00000-0 0  9998
2 10209  96.7000 312.0000 0000000   0.0000 201.0000 15.90815360    14
CTC2_L_00503027-03
1 10210U 24142OF  26075.70047454  .00000000  00000+0  00000-0 0  9997
2 10210  96.7000 312.0000 0000000   0.0000 246.0000 15.90815360    15
CTC2_L_00503027-04
1 10211U 25684XL  26075.70047454  .00000000  00000+0  00000-0 0  9990
2 10211  96.7000 312.0000 0000000   0.0000 291.0000 15.90815360    16
CTC2_L_00503027-05
1 10212U 22345QD  26075.70047454  .00000000  00000+0  00000-0 0  9992
2 10212  96.7000 312.0000 0000000   0.0000 336.0000 15.90815360    17
CTC2_L_00503027-06
1 10213U 22095YE  26075.70047454  .00000000  00000+0  00000-0 0  9995
2 10213  96.7000 312.0000 0000000   0.0000  21.0000 15.90815360    19
CTC2_L_00503027-07
1 10214U 22845UW  26075.70047454  .00000000  00000+0  00000-0 0  9999
2 10214  96.7000 312.0000 0000000   0.0000  66.0000 15.90815360    19
CTC2_L_00503027-08
1 10215U 22686ER  26075.70047454  .00000000  00000+0  00000-0 0  9993
2 10215  96.7000 312.0000 0000000   0.0000 111.0000 15.90815360    11
CTC2_L_00503028-01
1 10216U 23413J   26075.70047454  .00000000  00000+0  00000-0 0  9993
2 10216  96.7000 324.0000 0000000   0.0000 162.0000 15.90815360    11
CTC2_L_00503028-02
1 10217U 23948I   26075.70047454  .00000000  00000+0  00000-0 0  9997
2 10217  96.7000 324.0000 0000000   0.0000 207.0000 15.90815360    12
CTC2_L_00503028-03
1 10218U 26693RI  26075.70047454  .00000000  00000+0  00000-0 0  9998
2 10218  96.7000 324.0000 0000000   0.0000 252.0000 15.90815360    13
CTC2_L_00503028-04
1 10219U 24167KZ  26075.70047454  .00000000  00000+0  00000-0 0  9993
2 10219  96.7000 324.0000 0000000   0.0000 297.0000 15.90815360    13
CTC2_L_00503028-05
1 10220U 22685XT  26075.70047454  .00000000  00000+0  00000-0 0  9998
2 10220  96.7000 324.0000 0000000   0.0000 342.0000 15.90815360    16
CTC2_L_00503028-06
1 10221U 25728MC  26075.70047454  .00000000  00000+0  00000-0 0  9990
2 10221  96.7000 324.0000 0000000   0.0000  27.0000 15.90815360    17
CTC2_L_00503028-07
1 10222U 24610DZ  26075.70047454  .00000000  00000+0  00000-0 0  9990
2 10222  96.7000 324.0000 0000000   0.0000  72.0000 15.90815360    18
CTC2_L_00503028-08
1 10223U 22080SW  26075.70047454  .00000000  00000+0  00000-0 0  9990
2 10223  96.7000 324.0000 0000000   0.0000 117.0000 15.90815360    19
CTC2_L_00503029-01
1 10224U 22929WK  26075.70047454  .00000000  00000+0  00000-0 0  9993
2 10224  96.7000 336.0000 0000000   0.0000 168.0000 15.90815360    19
CTC2_L_00503029-02
1 10225U 24117IX  26075.70047454  .00000000  00000+0  00000-0 0  9995
2 10225  96.7000 336.0000 0000000   0.0000 213.0000 15.90815360    11
CTC2_L_00503029-03
1 10226U 23836UH  26075.70047454  .00000000  00000+0  00000-0 0  9993
2 10226  96.7000 336.0000 0000000   0.0000 258.0000 15.90815360    11
CTC2_L_00503029-04
1 10227U 22828BH  26075.70047454  .00000000  00000+0  00000-0 0  9994
2 10227  96.7000 336.0000 0000000   0.0000 303.0000 15.90815360    13
CTC2_L_00503029-05
1 10228U 23906BE  26075.70047454  .00000000  00000+0  00000-0 0  9993
2 10228  96.7000 336.0000 0000000   0.0000 348.0000 15.90815360    13
CTC2_L_00503029-06
1 10229U 26269DW  26075.70047454  .00000000  00000+0  00000-0 0  9999
2 10229  96.7000 336.0000 0000000   0.0000  33.0000 15.90815360    15
CTC2_L_00503029-07
1 10230U 26370EQ  26075.70047454  .00000000  00000+0  00000-0 0  9994
2 10230  96.7000 336.0000 0000000   0.0000  78.0000 15.90815360    16
CTC2_L_00503029-08
1 10231U 22654LP  26075.70047454  .00000000  00000+0  00000-0 0  9996
2 10231  96.7000 336.0000 0000000   0.0000 123.0000 15.90815360    18
CTC2_L_00503030-01
1 10232U 23467PL  26075.70047454  .00000000  00000+0  00000-0 0  9990
2 10232  96.7000 348.0000 0000000   0.0000 174.0000 15.90815360    18
CTC2_L_00503030-02
1 10233U 26134OQ  26075.70047454  .00000000  00000+0  00000-0 0  9995
2 10233  96.7000 348.0000 0000000   0.0000 219.0000 15.90815360    19
CTC2_L_00503030-03
1 10234U 23283RC  26075.70047454  .00000000  00000+0  00000-0 0  9998
2 10234  96.7000 348.0000 0000000   0.0000 264.0000 15.90815360    10
CTC2_L_00503030-04
1 10235U 26032LL  26075.70047454  .00000000  00000+0  00000-0 0  9994
2 10235  96.7000 348.0000 0000000   0.0000 309.0000 15.90815360    11
CTC2_L_00503030-05
1 10236U 24332GD  26075.70047454  .00000000  00000+0  00000-0 0  9996
2 10236  96.7000 348.0000 0000000   0.0000 354.0000 15.90815360    12
CTC2_L_00503030-06
1 10237U 25760QQ  26075.70047454  .00000000  00000+0  00000-0 0  9993
2 10237  96.7000 348.0000 0000000   0.0000  39.0000 15.90815360    13
CTC2_L_00503030-07
1 10238U 26252UT  26075.70047454  .00000000  00000+0  00000-0 0  9991
2 10238  96.7000 348.0000 0000000   0.0000  84.0000 15.90815360    14
CTC2_L_00503030-08
1 10239U 25698WC  26075.70047454  .00000000  00000+0  00000-0 0  9995
2 10239  96.7000 348.0000 0000000   0.0000 129.0000 15.90815360    15
